{"type": "FeatureCollection", "features": [ {"type": "Feature", "properties": {"norad_id": 34819, "name": "COSMOS 2251 DEB", "group": "cosmos-2251-debris", "lat": -73.51903811807023, "lon": 64.30399813529591, "alt_km": 678.8341627944919, "timestamp": "2025-12-14T03:55:53.183223+00:00", "meta": {"OBJECT_NAME": "COSMOS 2251 DEB", "OBJECT_ID": "1993-036ABJ", "EPOCH": "2025-12-12T03:39:15.255360", "MEAN_MOTION": 14.63952127, "ECCENTRICITY": 0.00156734, "INCLINATION": 74.0187, "RA_OF_ASC_NODE": 143.7886, "ARG_OF_PERICENTER": 237.8131, "MEAN_ANOMALY": 238.9847, "EPHEMERIS_TYPE": 0, "CLASSIFICATION_TYPE": "U", "NORAD_CAT_ID": 34819, "ELEMENT_SET_NO": 999, "REV_AT_EPOCH": 88220, "BSTAR": 0.002313028, "MEAN_MOTION_DOT": 0.00012122, "MEAN_MOTION_DDOT": 0}, "tle": {"line1": "1 34819U 93036ABJ 25346.15225990  .00012122  00000+0  23130-2 0  9997", "line2": "2 34819  74.0187 143.7886 0015673 237.8131 238.9847 14.63952127882209"}}, "geometry": {"type": "Point", "coordinates": [64.30399813529591, -73.51903811807023]}}, {"type": "Feature", "properties": {"norad_id": 34823, "name": "COSMOS 2251 DEB", "group": "cosmos-2251-debris", "lat": -72.7631168611434, "lon": 32.31594243980424, "alt_km": 719.7393711242057, "timestamp": "2025-12-14T03:55:53.183234+00:00", "meta": {"OBJECT_NAME": "COSMOS 2251 DEB", "OBJECT_ID": "1993-036ABN", "EPOCH": "2025-12-12T17:39:59.934240", "MEAN_MOTION": 14.54931387, "ECCENTRICITY": 0.0154702, "INCLINATION": 74.041, "RA_OF_ASC_NODE": 102.2866, "ARG_OF_PERICENTER": 187.0633, "MEAN_ANOMALY": 172.8354, "EPHEMERIS_TYPE": 0, "CLASSIFICATION_TYPE": "U", "NORAD_CAT_ID": 34823, "ELEMENT_SET_NO": 999, "REV_AT_EPOCH": 88381, "BSTAR": 0.0011937013, "MEAN_MOTION_DOT": 6.001e-05, "MEAN_MOTION_DDOT": 0}, "tle": {"line1": "1 34823U 93036ABN 25346.73611035  .00006001  00000+0  11937-2 0  9996", "line2": "2 34823  74.0410 102.2866 0154702 187.0633 172.8354 14.54931387883813"}}, "geometry": {"type": "Point", "coordinates": [32.31594243980424, -72.7631168611434]}}, {"type": "Feature", "properties": {"norad_id": 34845, "name": "COSMOS 2251 DEB", "group": "cosmos-2251-debris", "lat": -15.744670814394098, "lon": -29.67308475608928, "alt_km": 748.9488652242981, "timestamp": "2025-12-14T03:55:53.183244+00:00", "meta": {"OBJECT_NAME": "COSMOS 2251 DEB", "OBJECT_ID": "1993-036ABP", "EPOCH": "2025-12-09T20:04:05.418048", "MEAN_MOTION": 14.45850049, "ECCENTRICITY": 0.00222586, "INCLINATION": 74.0237, "RA_OF_ASC_NODE": 153.7694, "ARG_OF_PERICENTER": 315.2139, "MEAN_ANOMALY": 44.7222, "EPHEMERIS_TYPE": 0, "CLASSIFICATION_TYPE": "U", "NORAD_CAT_ID": 34845, "ELEMENT_SET_NO": 999, "REV_AT_EPOCH": 87424, "BSTAR": 0.00046671234, "MEAN_MOTION_DOT": 1.636e-05, "MEAN_MOTION_DDOT": 0}, "tle": {"line1": "1 34845U 93036ABP 25343.83617382  .00001636  00000+0  46671-3 0  9992", "line2": "2 34845  74.0237 153.7694 0022258 315.2139  44.7222 14.45850049874243"}}, "geometry": {"type": "Point", "coordinates": [-29.67308475608928, -15.744670814394098]}}, {"type": "Feature", "properties": {"norad_id": 34846, "name": "COSMOS 2251 DEB", "group": "cosmos-2251-debris", "lat": 35.54915444209688, "lon": 67.30550254212936, "alt_km": 750.4726621869877, "timestamp": "2025-12-14T03:55:53.183254+00:00", "meta": {"OBJECT_NAME": "COSMOS 2251 DEB", "OBJECT_ID": "1993-036ABQ", "EPOCH": "2025-12-13T00:43:45.655392", "MEAN_MOTION": 14.47219414, "ECCENTRICITY": 0.00260783, "INCLINATION": 74.0308, "RA_OF_ASC_NODE": 261.2316, "ARG_OF_PERICENTER": 327.5744, "MEAN_ANOMALY": 32.381, "EPHEMERIS_TYPE": 0, "CLASSIFICATION_TYPE": "U", "NORAD_CAT_ID": 34846, "ELEMENT_SET_NO": 999, "REV_AT_EPOCH": 87408, "BSTAR": 0.00132201, "MEAN_MOTION_DOT": 4.827e-05, "MEAN_MOTION_DDOT": 0}, "tle": {"line1": "1 34846U 93036ABQ 25347.03038953  .00004827  00000+0  13220-2 0  9998", "line2": "2 34846  74.0308 261.2316 0026078 327.5744  32.3810 14.47219414874086"}}, "geometry": {"type": "Point", "coordinates": [67.30550254212936, 35.54915444209688]}}, {"type": "Feature", "properties": {"norad_id": 34852, "name": "COSMOS 2251 DEB", "group": "cosmos-2251-debris", "lat": 22.429072135570962, "lon": 73.56693820442659, "alt_km": 778.066531341382, "timestamp": "2025-12-14T03:55:53.183265+00:00", "meta": {"OBJECT_NAME": "COSMOS 2251 DEB", "OBJECT_ID": "1993-036ABW", "EPOCH": "2025-12-13T00:28:22.968192", "MEAN_MOTION": 14.37005395, "ECCENTRICITY": 0.00162085, "INCLINATION": 74.0331, "RA_OF_ASC_NODE": 262.4571, "ARG_OF_PERICENTER": 5.5447, "MEAN_ANOMALY": 354.5882, "EPHEMERIS_TYPE": 0, "CLASSIFICATION_TYPE": "U", "NORAD_CAT_ID": 34852, "ELEMENT_SET_NO": 999, "REV_AT_EPOCH": 87538, "BSTAR": 0.00018601182, "MEAN_MOTION_DOT": 5.26e-06, "MEAN_MOTION_DDOT": 0}, "tle": {"line1": "1 34852U 93036ABW 25347.01971028  .00000526  00000+0  18601-3 0  9993", "line2": "2 34852  74.0331 262.4571 0016208   5.5447 354.5882 14.37005395875384"}}, "geometry": {"type": "Point", "coordinates": [73.56693820442659, 22.429072135570962]}}, {"type": "Feature", "properties": {"norad_id": 34854, "name": "COSMOS 2251 DEB", "group": "cosmos-2251-debris", "lat": -72.59085680496301, "lon": 41.767541986144984, "alt_km": 600.5765655986052, "timestamp": "2025-12-14T03:55:53.183275+00:00", "meta": {"OBJECT_NAME": "COSMOS 2251 DEB", "OBJECT_ID": "1993-036ABY", "EPOCH": "2025-12-12T18:13:14.177568", "MEAN_MOTION": 14.76625947, "ECCENTRICITY": 0.00661438, "INCLINATION": 74.0288, "RA_OF_ASC_NODE": 158.5442, "ARG_OF_PERICENTER": 270.2181, "MEAN_ANOMALY": 89.1414, "EPHEMERIS_TYPE": 0, "CLASSIFICATION_TYPE": "U", "NORAD_CAT_ID": 34854, "ELEMENT_SET_NO": 999, "REV_AT_EPOCH": 71882, "BSTAR": 0.0010403851, "MEAN_MOTION_DOT": 7.508e-05, "MEAN_MOTION_DDOT": 0}, "tle": {"line1": "1 34854U 93036ABY 25346.75919187  .00007508  00000+0  10404-2 0  9992", "line2": "2 34854  74.0288 158.5442 0066143 270.2181  89.1414 14.76625947718829"}}, "geometry": {"type": "Point", "coordinates": [41.767541986144984, -72.59085680496301]}}, {"type": "Feature", "properties": {"norad_id": 34856, "name": "COSMOS 2251 DEB", "group": "cosmos-2251-debris", "lat": 49.722125976707694, "lon": -117.87344877392665, "alt_km": 543.7511684357969, "timestamp": "2025-12-14T03:55:53.183285+00:00", "meta": {"OBJECT_NAME": "COSMOS 2251 DEB", "OBJECT_ID": "1993-036ACA", "EPOCH": "2025-12-12T13:10:18.783264", "MEAN_MOTION": 15.0605006, "ECCENTRICITY": 0.00328676, "INCLINATION": 73.9969, "RA_OF_ASC_NODE": 85.2433, "ARG_OF_PERICENTER": 223.1017, "MEAN_ANOMALY": 151.9744, "EPHEMERIS_TYPE": 0, "CLASSIFICATION_TYPE": "U", "NORAD_CAT_ID": 34856, "ELEMENT_SET_NO": 999, "REV_AT_EPOCH": 89109, "BSTAR": 0.002633255, "MEAN_MOTION_DOT": 0.00039084, "MEAN_MOTION_DDOT": 0}, "tle": {"line1": "1 34856U 93036ACA 25346.54882851  .00039084  00000+0  26333-2 0  9990", "line2": "2 34856  73.9969  85.2433 0032867 223.1017 151.9744 15.06050060891099"}}, "geometry": {"type": "Point", "coordinates": [-117.87344877392665, 49.722125976707694]}}, {"type": "Feature", "properties": {"norad_id": 34857, "name": "COSMOS 2251 DEB", "group": "cosmos-2251-debris", "lat": -68.9997709550367, "lon": -27.578035036554166, "alt_km": 662.3638159329648, "timestamp": "2025-12-14T03:55:53.183295+00:00", "meta": {"OBJECT_NAME": "COSMOS 2251 DEB", "OBJECT_ID": "1993-036ACB", "EPOCH": "2025-12-12T18:32:39.378336", "MEAN_MOTION": 14.58894225, "ECCENTRICITY": 0.00658466, "INCLINATION": 74.0152, "RA_OF_ASC_NODE": 106.7661, "ARG_OF_PERICENTER": 231.2435, "MEAN_ANOMALY": 281.2698, "EPHEMERIS_TYPE": 0, "CLASSIFICATION_TYPE": "U", "NORAD_CAT_ID": 34857, "ELEMENT_SET_NO": 999, "REV_AT_EPOCH": 87901, "BSTAR": 0.0017553159, "MEAN_MOTION_DOT": 8.453e-05, "MEAN_MOTION_DDOT": 0}, "tle": {"line1": "1 34857U 93036ACB 25346.77267799  .00008453  00000+0  17553-2 0  9994", "line2": "2 34857  74.0152 106.7661 0065846 231.2435 281.2698 14.58894225879013"}}, "geometry": {"type": "Point", "coordinates": [-27.578035036554166, -68.9997709550367]}}, {"type": "Feature", "properties": {"norad_id": 34859, "name": "COSMOS 2251 DEB", "group": "cosmos-2251-debris", "lat": 43.11430636239585, "lon": 141.14781052460808, "alt_km": 518.6594243582995, "timestamp": "2025-12-14T03:55:53.183306+00:00", "meta": {"OBJECT_NAME": "COSMOS 2251 DEB", "OBJECT_ID": "1993-036ACD", "EPOCH": "2025-12-12T00:52:56.324928", "MEAN_MOTION": 15.14557844, "ECCENTRICITY": 0.0002471, "INCLINATION": 74.0312, "RA_OF_ASC_NODE": 341.1213, "ARG_OF_PERICENTER": 336.6743, "MEAN_ANOMALY": 83.5787, "EPHEMERIS_TYPE": 0, "CLASSIFICATION_TYPE": "U", "NORAD_CAT_ID": 34859, "ELEMENT_SET_NO": 999, "REV_AT_EPOCH": 88348, "BSTAR": 0.0060515, "MEAN_MOTION_DOT": 0.0011338, "MEAN_MOTION_DDOT": 0}, "tle": {"line1": "1 34859U 93036ACD 25346.03676302  .00113380  00000+0  60515-2 0  9991", "line2": "2 34859  74.0312 341.1213 0002471 336.6743  83.5787 15.14557844883482"}}, "geometry": {"type": "Point", "coordinates": [141.14781052460808, 43.11430636239585]}}, {"type": "Feature", "properties": {"norad_id": 34861, "name": "COSMOS 2251 DEB", "group": "cosmos-2251-debris", "lat": -20.445462388310503, "lon": 41.808882156060605, "alt_km": 561.1057045508933, "timestamp": "2025-12-14T03:55:53.183316+00:00", "meta": {"OBJECT_NAME": "COSMOS 2251 DEB", "OBJECT_ID": "1993-036ACF", "EPOCH": "2025-12-13T05:54:34.792992", "MEAN_MOTION": 15.02637068, "ECCENTRICITY": 0.00072385, "INCLINATION": 74.0184, "RA_OF_ASC_NODE": 49.816, "ARG_OF_PERICENTER": 44.3694, "MEAN_ANOMALY": 12.8468, "EPHEMERIS_TYPE": 0, "CLASSIFICATION_TYPE": "U", "NORAD_CAT_ID": 34861, "ELEMENT_SET_NO": 999, "REV_AT_EPOCH": 88100, "BSTAR": 0.0042625844, "MEAN_MOTION_DOT": 0.00057281, "MEAN_MOTION_DDOT": 0}, "tle": {"line1": "1 34861U 93036ACF 25347.24623603  .00057281  00000+0  42626-2 0  9994", "line2": "2 34861  74.0184  49.8160 0007238  44.3694  12.8468 15.02637068881000"}}, "geometry": {"type": "Point", "coordinates": [41.808882156060605, -20.445462388310503]}}]}